{
  "type": "FeatureCollection",
  "features": [
    {
      "type": "Feature",
      "properties": {
        "norad_id": 33860,
        "name": "IRIDIUM 33 DEB",
        "group": "iridium-33-debris",
        "lat": 15.5262222672086,
        "lon": -157.69635399099803,
        "alt_km": 674.3118755617234,
        "timestamp": "2025-12-21T14:40:48.303102+00:00",
        "meta_object_name": "IRIDIUM 33 DEB",
        "meta_object_id": "1997-051AD",
        "meta_epoch": "2025-12-21T00:58:06.257280",
        "meta_mean_motion": 14.6745799,
        "meta_eccentricity": 0.0006432,
        "meta_inclination": 86.3822,
        "meta_ra_of_asc_node": 23.5637,
        "meta_arg_of_pericenter": 326.2778,
        "meta_mean_anomaly": 61.8404,
        "meta_ephemeris_type": 0,
        "meta_classification_type": "U",
        "meta_norad_cat_id": 33860,
        "meta_element_set_no": 999,
        "meta_rev_at_epoch": 88844,
        "meta_bstar": 0.00070650265,
        "meta_mean_motion_dot": 4.021e-05,
        "meta_mean_motion_ddot": 0,
        "tle_line1": "1 33860U 97051AD  25355.04035020  .00004021  00000+0  70650-3 0  9993",
        "tle_line2": "2 33860  86.3822  23.5637 0006432 326.2778  61.8404 14.67457990888444"
      },
      "geometry": {
        "type": "Point",
        "coordinates": [
          -157.69635399099803,
          15.5262222672086
        ]
      }
    },
    {
      "type": "Feature",
      "properties": {
        "norad_id": 33862,
        "name": "IRIDIUM 33 DEB",
        "group": "iridium-33-debris",
        "lat": -85.27912590300208,
        "lon": -96.85631608109746,
        "alt_km": 694.7108224735448,
        "timestamp": "2025-12-21T14:40:48.303113+00:00",
        "meta_object_name": "IRIDIUM 33 DEB",
        "meta_object_id": "1997-051AF",
        "meta_epoch": "2025-12-21T03:56:03.630624",
        "meta_mean_motion": 14.69594486,
        "meta_eccentricity": 0.00526121,
        "meta_inclination": 86.4078,
        "meta_ra_of_asc_node": 33.8153,
        "meta_arg_of_pericenter": 40.9364,
        "meta_mean_anomaly": 19.2005,
        "meta_ephemeris_type": 0,
        "meta_classification_type": "U",
        "meta_norad_cat_id": 33862,
        "meta_element_set_no": 999,
        "meta_rev_at_epoch": 88947,
        "meta_bstar": 0.00086312918,
        "meta_mean_motion_dot": 5.261e-05,
        "meta_mean_motion_ddot": 0,
        "tle_line1": "1 33862U 97051AF  25355.16393091  .00005261  00000+0  86313-3 0  9993",
        "tle_line2": "2 33862  86.4078  33.8153 0052612  40.9364  19.2005 14.69594486889471"
      },
      "geometry": {
        "type": "Point",
        "coordinates": [
          -96.85631608109746,
          -85.27912590300208
        ]
      }
    },
    {
      "type": "Feature",
      "properties": {
        "norad_id": 33866,
        "name": "IRIDIUM 33 DEB",
        "group": "iridium-33-debris",
        "lat": 0.15051518870162253,
        "lon": 89.29215749488804,
        "alt_km": 866.3530636288451,
        "timestamp": "2025-12-21T14:40:48.303125+00:00",
        "meta_object_name": "IRIDIUM 33 DEB",
        "meta_object_id": "1997-051AK",
        "meta_epoch": "2025-12-21T06:30:23.838336",
        "meta_mean_motion": 14.25298734,
        "meta_eccentricity": 0.0115015,
        "meta_inclination": 86.3001,
        "meta_ra_of_asc_node": 89.4265,
        "meta_arg_of_pericenter": 134.3497,
        "meta_mean_anomaly": 280.5396,
        "meta_ephemeris_type": 0,
        "meta_classification_type": "U",
        "meta_norad_cat_id": 33866,
        "meta_element_set_no": 999,
        "meta_rev_at_epoch": 86932,
        "meta_bstar": 0.0004289764,
        "meta_mean_motion_dot": 1.102e-05,
        "meta_mean_motion_ddot": 0,
        "tle_line1": "1 33866U 97051AK  25355.27110924  .00001102  00000+0  42898-3 0  9991",
        "tle_line2": "2 33866  86.3001  89.4265 0115015 134.3497 280.5396 14.25298734869320"
      },
      "geometry": {
        "type": "Point",
        "coordinates": [
          89.29215749488804,
          0.15051518870162253
        ]
      }
    },
    {
      "type": "Feature",
      "properties": {
        "norad_id": 33867,
        "name": "IRIDIUM 33 DEB",
        "group": "iridium-33-debris",
        "lat": -12.771636290284349,
        "lon": 166.2604797112561,
        "alt_km": 313.761794386508,
        "timestamp": "2025-12-21T14:40:48.303136+00:00",
        "meta_object_name": "IRIDIUM 33 DEB",
        "meta_object_id": "1997-051AL",
        "meta_epoch": "2025-12-20T00:00:24.546240",
        "meta_mean_motion": 15.83320916,
        "meta_eccentricity": 0.00135723,
        "meta_inclination": 86.3644,
        "meta_ra_of_asc_node": 346.2932,
        "meta_arg_of_pericenter": 95.1198,
        "meta_mean_anomaly": 265.1629,
        "meta_ephemeris_type": 0,
        "meta_classification_type": "U",
        "meta_norad_cat_id": 33867,
        "meta_element_set_no": 999,
        "meta_rev_at_epoch": 89625,
        "meta_bstar": 0.0064207293,
        "meta_mean_motion_dot": 0.01574163,
        "meta_mean_motion_ddot": 0,
        "tle_line1": "1 33867U 97051AL  25354.00028410  .01574163  00000+0  64207-2 0  9990",
        "tle_line2": "2 33867  86.3644 346.2932 0013572  95.1198 265.1629 15.83320916896259"
      },
      "geometry": {
        "type": "Point",
        "coordinates": [
          166.2604797112561,
          -12.771636290284349
        ]
      }
    },
    {
      "type": "Feature",
      "properties": {
        "norad_id": 33870,
        "name": "IRIDIUM 33 DEB",
        "group": "iridium-33-debris",
        "lat": 36.062258164002884,
        "lon": 57.1047235401915,
        "alt_km": 742.9903839083654,
        "timestamp": "2025-12-21T14:40:48.303148+00:00",
        "meta_object_name": "IRIDIUM 33 DEB",
        "meta_object_id": "1997-051AP",
        "meta_epoch": "2025-12-21T02:58:57.296064",
        "meta_mean_motion": 14.45889028,
        "meta_eccentricity": 0.00222885,
        "meta_inclination": 86.3739,
        "meta_ra_of_asc_node": 54.6669,
        "meta_arg_of_pericenter": 151.351,
        "meta_mean_anomaly": 229.7461,
        "meta_ephemeris_type": 0,
        "meta_classification_type": "U",
        "meta_norad_cat_id": 33870,
        "meta_element_set_no": 999,
        "meta_rev_at_epoch": 88258,
        "meta_bstar": 0.00047353054,
        "meta_mean_motion_dot": 1.707e-05,
        "meta_mean_motion_ddot": 0,
        "tle_line1": "1 33870U 97051AP  25355.12427426  .00001707  00000+0  47353-3 0  9990",
        "tle_line2": "2 33870  86.3739  54.6669 0022288 151.3510 229.7461 14.45889028882584"
      },
      "geometry": {
        "type": "Point",
        "coordinates": [
          57.1047235401915,
          36.062258164002884
        ]
      }
    },
    {
      "type": "Feature",
      "properties": {
        "norad_id": 33881,
        "name": "IRIDIUM 33 DEB",
        "group": "iridium-33-debris",
        "lat": -68.90682339385457,
        "lon": -67.68452132953743,
        "alt_km": 720.8816604855674,
        "timestamp": "2025-12-21T14:40:48.303159+00:00",
        "meta_object_name": "IRIDIUM 33 DEB",
        "meta_object_id": "1997-051BA",
        "meta_epoch": "2025-12-20T18:27:12.976416",
        "meta_mean_motion": 14.56702482,
        "meta_eccentricity": 0.00613627,
        "meta_inclination": 86.3866,
        "meta_ra_of_asc_node": 103.253,
        "meta_arg_of_pericenter": 148.7613,
        "meta_mean_anomaly": 2.955,
        "meta_ephemeris_type": 0,
        "meta_classification_type": "U",
        "meta_norad_cat_id": 33881,
        "meta_element_set_no": 999,
        "meta_rev_at_epoch": 87617,
        "meta_bstar": 0.0011797904,
        "meta_mean_motion_dot": 5.428e-05,
        "meta_mean_motion_ddot": 0,
        "tle_line1": "1 33881U 97051BA  25354.76890019  .00005428  00000+0  11798-2 0  9990",
        "tle_line2": "2 33881  86.3866 103.2530 0061362 148.7613   2.9550 14.56702482876173"
      },
      "geometry": {
        "type": "Point",
        "coordinates": [
          -67.68452132953743,
          -68.90682339385457
        ]
      }
    },
    {
      "type": "Feature",
      "properties": {
        "norad_id": 33884,
        "name": "IRIDIUM 33 DEB",
        "group": "iridium-33-debris",
        "lat": 39.40786058835096,
        "lon": -177.17716106939963,
        "alt_km": 639.532060546765,
        "timestamp": "2025-12-21T14:40:48.303171+00:00",
        "meta_object_name": "IRIDIUM 33 DEB",
        "meta_object_id": "1997-051BD",
        "meta_epoch": "2025-12-20T19:06:20.177568",
        "meta_mean_motion": 14.77573333,
        "meta_eccentricity": 0.00091017,
        "meta_inclination": 86.3692,
        "meta_ra_of_asc_node": 6.1816,
        "meta_arg_of_pericenter": 292.2796,
        "meta_mean_anomaly": 192.6099,
        "meta_ephemeris_type": 0,
        "meta_classification_type": "U",
        "meta_norad_cat_id": 33884,
        "meta_element_set_no": 999,
        "meta_rev_at_epoch": 88966,
        "meta_bstar": 0.00096382416,
        "meta_mean_motion_dot": 6.912e-05,
        "meta_mean_motion_ddot": 0,
        "tle_line1": "1 33884U 97051BD  25354.79606687  .00006912  00000+0  96382-3 0  9994",
        "tle_line2": "2 33884  86.3692   6.1816 0009101 292.2796 192.6099 14.77573333889668"
      },
      "geometry": {
        "type": "Point",
        "coordinates": [
          -177.17716106939963,
          39.40786058835096
        ]
      }
    }
  ]
}